     2.100          NAVIGATION                              RINEX VERSION / TYPE
fic2rin                                 01/27/2014 00:16:10 PGM / RUN BY / DATE
                                                            END OF HEADER
21 14  1 26  1 59 44.0 -.340319704264D-03 -.216004991671D-11  .000000000000D+00
     .140000000000D+02 -.100625000000D+02  .525236163909D-08  .258069563951D+01
    -.754371285439D-06  .209780139849D-01  .665523111820D-05  .515356314278D+04
     .718400000000D+04  .135973095894D-06  .427418133189D+00 -.260770320892D-06
     .932257928788D+00  .232718750000D+03 -.206964680265D+01 -.803783480808D-08
     .170364239212D-09  .100000000000D+01  .177700000000D+04  .000000000000D+00
     .240000000000D+01  .000000000000D+00 -.111758708954D-07  .140000000000D+02
     .120600000000D+04  .400000000000D+01
21 14  1 26  3 59 44.0 -.340335071087D-03 -.216004991671D-11  .000000000000D+00
     .310000000000D+02 -.114062500000D+02  .527557689181D-08 -.265224008413D+01
    -.772997736931D-06  .209783508908D-01  .649131834507D-05  .515356252861D+04
     .143840000000D+05  .227242708206D-06  .427359988047D+00 -.141561031342D-06
     .932259235173D+00  .235250000000D+03 -.206964229247D+01 -.804854954011D-08
     .239295681911D-09  .100000000000D+01  .177700000000D+04  .000000000000D+00
     .240000000000D+01  .000000000000D+00 -.111758708954D-07  .310000000000D+02
     .720600000000D+04  .400000000000D+01
 1 14  1 26  4  0  0.0  .102861318737D-03  .238742359215D-11  .000000000000D+00
     .104000000000D+03 -.656250000000D+01  .472019661514D-08 -.124531167164D+01
    -.333413481712D-06  .267411489040D-02  .692158937454D-05  .515367802620D+04
     .144000000000D+05  .428408384323D-07  .436094649115D+00 -.484287738800D-07
     .960828299018D+00  .248187500000D+03  .400625498083D+00 -.809962309610D-08
     .110718897601D-09  .100000000000D+01  .177700000000D+04  .000000000000D+00
     .240000000000D+01  .000000000000D+00  .838190317154D-08  .104000000000D+03
     .720600000000D+04  .400000000000D+01
 2 14  1 26  4  0  0.0  .474915374070D-03  .216004991671D-11  .000000000000D+00
     .740000000000D+02 -.796875000000D+01  .543344061033D-08 -.520428551172D+00
    -.344589352608D-06  .130423424998D-01  .635720789433D-05  .515379034233D+04
     .144000000000D+05  .126659870148D-06  .409147572284D+00  .221654772758D-06
     .939367715042D+00  .246812500000D+03 -.250596260109D+01 -.862143054576D-08
     .367872466222D-10  .100000000000D+01  .177700000000D+04  .000000000000D+00
     .240000000000D+01  .000000000000D+00 -.200234353542D-07  .740000000000D+02
     .720600000000D+04  .400000000000D+01
 3 14  1 26  4  0  0.0  .317366328090D-03  .500222085975D-11  .000000000000D+00
     .800000000000D+02 -.554375000000D+02  .511342728049D-08 -.320148174314D+00
    -.272877514362D-05  .167079784442D-01  .938400626183D-05  .515376483345D+04
     .144000000000D+05 -.121071934700D-06 -.763526809579D+00  .119209289551D-06
     .937188230429D+00  .187125000000D+03  .136154167020D+01 -.858392898367D-08
     .221080637467D-09  .100000000000D+01  .177700000000D+04  .000000000000D+00
     .340000000000D+01  .000000000000D+00 -.465661287308D-08  .800000000000D+02
     .720600000000D+04  .400000000000D+01
 4 14  1 26  4  0  0.0  .508641824126D-05  .341060513165D-12  .000000000000D+00
     .800000000000D+02 -.896875000000D+01  .525271879682D-08  .285865768467D+01
    -.525265932083D-06  .106287824456D-01  .625103712082D-05  .515367516708D+04
     .144000000000D+05  .521540641785D-07  .425283776673D+00 -.134110450745D-06
     .938379104262D+00  .245718750000D+03  .107543269570D+01 -.822605693400D-08
     .675028117631D-10  .100000000000D+01  .177700000000D+04  .000000000000D+00
     .340000000000D+01  .000000000000D+00 -.605359673500D-08  .800000000000D+02
     .720600000000D+04  .400000000000D+01
 5 14  1 26  4  0  0.0 -.391049776226D-03  .136424205266D-11  .000000000000D+00
     .330000000000D+02  .896875000000D+01  .485020203038D-08  .171911079013D+01
     .493600964546D-06  .354089087341D-02  .912323594093D-05  .515378085136D+04
     .144000000000D+05  .000000000000D+00  .147610862203D+01  .130385160446D-07
     .947260746172D+00  .198531250000D+03  .370691546299D+00 -.808212236712D-08
    -.378230040514D-09  .100000000000D+01  .177700000000D+04  .000000000000D+00
     .240000000000D+01  .000000000000D+00 -.102445483208D-07  .330000000000D+02
     .720600000000D+04  .400000000000D+01
 6 14  1 26  4  0  0.0  .250584911555D-03  .151203494170D-10  .000000000000D+00
     .103000000000D+03 -.528125000000D+02  .488484633060D-08  .154133733185D+01
    -.248104333878D-05  .847444403917D-02  .917539000511D-05  .515368635750D+04
     .144000000000D+05  .135973095894D-06 -.682252341749D+00  .856816768646D-07
     .943734777130D+00  .190843750000D+03 -.184989765452D+00 -.815748264904D-08
     .117147736816D-09  .100000000000D+01  .177700000000D+04  .000000000000D+00
     .240000000000D+01  .000000000000D+00 -.512227416039D-08  .103000000000D+03
     .720600000000D+04  .400000000000D+01
 7 14  1 26  4  0  0.0  .306819565594D-03  .420641299570D-11  .000000000000D+00
     .920000000000D+02  .361250000000D+02  .441089801732D-08 -.182033938888D+01
     .169314444065D-05  .699456629809D-02  .326894223690D-05  .515365584564D+04
     .144000000000D+05  .122934579849D-06 -.268675989641D+01 -.726431608200D-07
     .974457844481D+00  .323218750000D+03 -.283364311823D+01 -.822962851135D-08
     .168221292806D-09  .100000000000D+01  .177700000000D+04  .000000000000D+00
     .240000000000D+01  .000000000000D+00 -.107102096081D-07  .920000000000D+02
     .720600000000D+04  .400000000000D+01
 8 14  1 26  4  0  0.0  .115595757961D-04  .227373675443D-12  .000000000000D+00
     .920000000000D+02  .211250000000D+02  .393516391537D-08 -.239968854711D+01
     .931322574615D-06  .134399770759D-01  .337697565556D-05  .515364871216D+04
     .144000000000D+05  .130385160446D-07 -.259009383048D+01 -.316649675369D-06
     .997502438118D+00  .336812500000D+03 -.279397257620D+01 -.790747223510D-08
     .106433004790D-09  .100000000000D+01  .177700000000D+04  .000000000000D+00
     .240000000000D+01  .000000000000D+00 -.419095158577D-08  .920000000000D+02
     .720600000000D+04  .400000000000D+01
 9 14  1 26  4  0  0.0  .300772022456D-03  .284217094304D-11  .000000000000D+00
     .120000000000D+03  .357187500000D+02  .435589572626D-08 -.680165513978D+00
     .180676579475D-05  .168864428997D-01  .386871397495D-05  .515369388962D+04
     .144000000000D+05 -.180676579475D-06 -.270810507810D+01  .745058059692D-08
     .983029656434D+00  .325000000000D+03  .176317312196D+01 -.844356599413D-08
     .170007081477D-09  .100000000000D+01  .177700000000D+04  .000000000000D+00
     .340000000000D+01  .000000000000D+00 -.605359673500D-08  .120000000000D+03
     .720600000000D+04  .400000000000D+01
10 14  1 26  4  0  0.0 -.111589208245D-03 -.159161572810D-11  .000000000000D+00
     .810000000000D+02 -.437500000000D+00  .488127475326D-08  .207728269813D+01
    -.139698386192D-06  .134209243115D-01  .910833477974D-05  .515369924927D+04
     .144000000000D+05 -.173225998878D-06  .149409115777D+01 -.193715095520D-06
     .942066398058D+00  .195781250000D+03  .851771372542D+00 -.811712382507D-08
    -.315013121561D-09  .100000000000D+01  .177700000000D+04  .000000000000D+00
     .485000000000D+01  .000000000000D+00 -.279396772385D-08  .810000000000D+02
     .720600000000D+04  .400000000000D+01
11 14  1 26  4  0  0.0 -.458783470094D-03 -.329691829393D-11  .000000000000D+00
     .900000000000D+01  .621875000000D+01  .625668918765D-08 -.159603958683D+01
     .463798642159D-06  .147764632711D-01  .662356615067D-05  .515369345856D+04
     .144000000000D+05  .288709998131D-06  .121203083246D+00  .230967998505D-06
     .890297718074D+00  .211281250000D+03  .126056609045D+01 -.879108046950D-08
     .260367988229D-09  .100000000000D+01  .177700000000D+04  .000000000000D+00
     .240000000000D+01  .000000000000D+00 -.116415321827D-07  .900000000000D+01
     .720600000000D+04  .400000000000D+01
12 14  1 26  4  0  0.0  .182488467544D-03  .227373675443D-11  .000000000000D+00
     .640000000000D+02 -.952187500000D+02  .395837916810D-08 -.214703703719D+01
    -.488385558128D-05  .476137525402D-02  .752881169319D-05  .515369316864D+04
     .144000000000D+05  .633299350739D-07 -.162513090219D+01 -.108033418655D-06
     .986272385518D+00  .244968750000D+03  .332196688617D+00 -.791318675885D-08
    -.109647424398D-09  .100000000000D+01  .177700000000D+04  .000000000000D+00
     .240000000000D+01  .000000000000D+00 -.121071934700D-07  .640000000000D+02
     .720600000000D+04  .400000000000D+01
13 14  1 26  4  0  0.0  .361334532499D-04 -.386535248253D-11  .000000000000D+00
     .330000000000D+02  .887812500000D+02  .396695095372D-08  .556283052382D+00
     .463612377644D-05  .517050211783D-02  .839307904243D-05  .515364917183D+04
     .144000000000D+05 -.372529029846D-07  .263156261629D+01 -.651925802231D-07
     .979012105955D+00  .225718750000D+03  .218710211068D+01 -.790282918456D-08
     .907180644858D-10  .100000000000D+01  .177700000000D+04  .000000000000D+00
     .240000000000D+01  .000000000000D+00 -.111758708954D-07  .330000000000D+02
     .720600000000D+04  .400000000000D+01
14 14  1 26  4  0  0.0  .203306786716D-03 -.159161572810D-11  .000000000000D+00
     .135000000000D+03  .102437500000D+03  .418374569837D-08  .844250459495D+00
     .522658228874D-05  .725569610950D-02  .897608697414D-05  .515361927223D+04
     .144000000000D+05 -.745058059692D-07  .260058464717D+01  .149011611938D-07
     .971585921242D+00  .208406250000D+03 -.198600243972D+01 -.807605068564D-08
     .628597612185D-10  .100000000000D+01  .177700000000D+04  .000000000000D+00
     .340000000000D+01  .000000000000D+00 -.884756445885D-08  .135000000000D+03
     .720600000000D+04  .400000000000D+01
